[{"OBJECT_NAME":"STARLINK-30181","OBJECT_ID":"2023-105Q","EPOCH":"2026-03-09T22:00:01.999584","MEAN_MOTION":15.09558065,"ECCENTRICITY":9.224e-5,"INCLINATION":43.0009,"RA_OF_ASC_NODE":259.9936,"ARG_OF_PERICENTER":299.2922,"MEAN_ANOMALY":278.8532,"EPHEMERIS_TYPE":0,"CLASSIFICATION_TYPE":"U","NORAD_CAT_ID":57444,"ELEMENT_SET_NO":999,"REV_AT_EPOCH":578,"BSTAR":0.005174718,"MEAN_MOTION_DOT":0.00085307,"MEAN_MOTION_DDOT":0},{"OBJECT_NAME":"POPSAT-HIP-1","OBJECT_ID":"2014-033U","EPOCH":"2026-03-09T23:26:47.463936","MEAN_MOTION":15.1379217,"ECCENTRICITY":0.00074107,"INCLINATION":98.1028,"RA_OF_ASC_NODE":73.4567,"ARG_OF_PERICENTER":158.1927,"MEAN_ANOMALY":201.962,"EPHEMERIS_TYPE":0,"CLASSIFICATION_TYPE":"U","NORAD_CAT_ID":40028,"ELEMENT_SET_NO":999,"REV_AT_EPOCH":63778,"BSTAR":0.00046333918,"MEAN_MOTION_DOT":8.298e-5,"MEAN_MOTION_DDOT":0}]
